[{"OBJECT_NAME":"FLOCK 4G-33","OBJECT_ID":"2025-009CE","EPOCH":"2026-04-25T18:15:11.494080","MEAN_MOTION":15.24818542,"ECCENTRICITY":0.00067343,"INCLINATION":97.3948,"RA_OF_ASC_NODE":196.2574,"ARG_OF_PERICENTER":143.7445,"MEAN_ANOMALY":216.425,"EPHEMERIS_TYPE":0,"CLASSIFICATION_TYPE":"U","NORAD_CAT_ID":62685,"ELEMENT_SET_NO":999,"REV_AT_EPOCH":7081,"BSTAR":0.00027040504,"MEAN_MOTION_DOT":6.644e-5,"MEAN_MOTION_DDOT":0},{"OBJECT_NAME":"PELICAN-3","OBJECT_ID":"2025-188A","EPOCH":"2026-04-25T19:55:06.808224","MEAN_MOTION":15.40622474,"ECCENTRICITY":0.00026998,"INCLINATION":97.1984,"RA_OF_ASC_NODE":192.7722,"ARG_OF_PERICENTER":131.4059,"MEAN_ANOMALY":228.742,"EPHEMERIS_TYPE":0,"CLASSIFICATION_TYPE":"U","NORAD_CAT_ID":65315,"ELEMENT_SET_NO":999,"REV_AT_EPOCH":3725,"BSTAR":0.00025140288,"MEAN_MOTION_DOT":0.00010159,"MEAN_MOTION_DDOT":0},{"OBJECT_NAME":"PELICAN-4","OBJECT_ID":"2025-188B","EPOCH":"2026-04-25T18:43:29.422560","MEAN_MOTION":15.40614772,"ECCENTRICITY":0.00052563,"INCLINATION":97.2049,"RA_OF_ASC_NODE":192.8692,"ARG_OF_PERICENTER":163.5854,"MEAN_ANOMALY":196.5564,"EPHEMERIS_TYPE":0,"CLASSIFICATION_TYPE":"U","NORAD_CAT_ID":65316,"ELEMENT_SET_NO":999,"REV_AT_EPOCH":3724,"BSTAR":2.9711136e-5,"MEAN_MOTION_DOT":1.128e-5,"MEAN_MOTION_DDOT":0},{"OBJECT_NAME":"PELICAN-5","OBJECT_ID":"2025-276B","EPOCH":"2026-04-25T18:50:25.384992","MEAN_MOTION":15.28471228,"ECCENTRICITY":0.00045397,"INCLINATION":97.4167,"RA_OF_ASC_NODE":190.9552,"ARG_OF_PERICENTER":149.4728,"MEAN_ANOMALY":210.6777,"EPHEMERIS_TYPE":0,"CLASSIFICATION_TYPE":"U","NORAD_CAT_ID":66667,"ELEMENT_SET_NO":999,"REV_AT_EPOCH":2251,"BSTAR":0.00014608069,"MEAN_MOTION_DOT":3.973e-5,"MEAN_MOTION_DDOT":0},{"OBJECT_NAME":"PELICAN-6","OBJECT_ID":"2025-276AP","EPOCH":"2026-04-25T22:02:03.306048","MEAN_MOTION":15.28856215,"ECCENTRICITY":0.00027858,"INCLINATION":97.4158,"RA_OF_ASC_NODE":191.2462,"ARG_OF_PERICENTER":62.6463,"MEAN_ANOMALY":297.506,"EPHEMERIS_TYPE":0,"CLASSIFICATION_TYPE":"U","NORAD_CAT_ID":66703,"ELEMENT_SET_NO":999,"REV_AT_EPOCH":2254,"BSTAR":0.00024703612,"MEAN_MOTION_DOT":6.852e-5,"MEAN_MOTION_DDOT":0},{"OBJECT_NAME":"FLOCK 4H-1","OBJECT_ID":"2025-276AQ","EPOCH":"2026-04-25T18:53:37.303584","MEAN_MOTION":15.19945083,"ECCENTRICITY":0.00034886,"INCLINATION":97.4192,"RA_OF_ASC_NODE":190.3207,"ARG_OF_PERICENTER":123.6076,"MEAN_ANOMALY":236.5492,"EPHEMERIS_TYPE":0,"CLASSIFICATION_TYPE":"U","NORAD_CAT_ID":66704,"ELEMENT_SET_NO":999,"REV_AT_EPOCH":2247,"BSTAR":0.00027674674,"MEAN_MOTION_DOT":5.885e-5,"MEAN_MOTION_DDOT":0},{"OBJECT_NAME":"FLOCK 4H-2","OBJECT_ID":"2025-276AR","EPOCH":"2026-04-25T18:35:29.317632","MEAN_MOTION":15.20204272,"ECCENTRICITY":0.00026652,"INCLINATION":97.4189,"RA_OF_ASC_NODE":190.3296,"ARG_OF_PERICENTER":121.4533,"MEAN_ANOMALY":238.6963,"EPHEMERIS_TYPE":0,"CLASSIFICATION_TYPE":"U","NORAD_CAT_ID":66705,"ELEMENT_SET_NO":999,"REV_AT_EPOCH":2247,"BSTAR":0.0002859928,"MEAN_MOTION_DOT":6.129e-5,"MEAN_MOTION_DDOT":0},{"OBJECT_NAME":"FLOCK 4H-3","OBJECT_ID":"2025-276AS","EPOCH":"2026-04-25T18:49:18.568416","MEAN_MOTION":15.19330122,"ECCENTRICITY":0.00045281,"INCLINATION":97.4256,"RA_OF_ASC_NODE":190.2973,"ARG_OF_PERICENTER":164.1422,"MEAN_ANOMALY":195.9956,"EPHEMERIS_TYPE":0,"CLASSIFICATION_TYPE":"U","NORAD_CAT_ID":66706,"ELEMENT_SET_NO":999,"REV_AT_EPOCH":2246,"BSTAR":0.00035850848,"MEAN_MOTION_DOT":7.51e-5,"MEAN_MOTION_DDOT":0},{"OBJECT_NAME":"FLOCK 4H-4","OBJECT_ID":"2025-276AT","EPOCH":"2026-04-25T17:48:59.661216","MEAN_MOTION":15.19086807,"ECCENTRICITY":0.00050898,"INCLINATION":97.4241,"RA_OF_ASC_NODE":190.169,"ARG_OF_PERICENTER":167.443,"MEAN_ANOMALY":192.6932,"EPHEMERIS_TYPE":0,"CLASSIFICATION_TYPE":"U","NORAD_CAT_ID":66707,"ELEMENT_SET_NO":999,"REV_AT_EPOCH":2245,"BSTAR":0.0003171561,"MEAN_MOTION_DOT":6.589e-5,"MEAN_MOTION_DDOT":0},{"OBJECT_NAME":"FLOCK 4H-5","OBJECT_ID":"2025-276AU","EPOCH":"2026-04-25T17:11:36.764736","MEAN_MOTION":15.19996224,"ECCENTRICITY":0.00022191,"INCLINATION":97.4193,"RA_OF_ASC_NODE":190.2669,"ARG_OF_PERICENTER":116.5069,"MEAN_ANOMALY":243.6394,"EPHEMERIS_TYPE":0,"CLASSIFICATION_TYPE":"U","NORAD_CAT_ID":66708,"ELEMENT_SET_NO":999,"REV_AT_EPOCH":2246,"BSTAR":0.0002914681,"MEAN_MOTION_DOT":6.21e-5,"MEAN_MOTION_DDOT":0},{"OBJECT_NAME":"FLOCK 4H-6","OBJECT_ID":"2025-276AV","EPOCH":"2026-04-25T22:38:06.860544","MEAN_MOTION":15.19667048,"ECCENTRICITY":0.00043996,"INCLINATION":97.4243,"RA_OF_ASC_NODE":190.5187,"ARG_OF_PERICENTER":138.2341,"MEAN_ANOMALY":221.923,"EPHEMERIS_TYPE":0,"CLASSIFICATION_TYPE":"U","NORAD_CAT_ID":66709,"ELEMENT_SET_NO":999,"REV_AT_EPOCH":2249,"BSTAR":0.00036424525,"MEAN_MOTION_DOT":7.706e-5,"MEAN_MOTION_DDOT":0},{"OBJECT_NAME":"FLOCK 4H-7","OBJECT_ID":"2025-276AW","EPOCH":"2026-04-25T15:34:05.145024","MEAN_MOTION":15.19405258,"ECCENTRICITY":0.00023438,"INCLINATION":97.4201,"RA_OF_ASC_NODE":190.0604,"ARG_OF_PERICENTER":171.0215,"MEAN_ANOMALY":189.1062,"EPHEMERIS_TYPE":0,"CLASSIFICATION_TYPE":"U","NORAD_CAT_ID":66710,"ELEMENT_SET_NO":999,"REV_AT_EPOCH":2244,"BSTAR":0.0002907458,"MEAN_MOTION_DOT":6.089e-5,"MEAN_MOTION_DDOT":0},{"OBJECT_NAME":"FLOCK 4H-8","OBJECT_ID":"2025-276AX","EPOCH":"2026-04-25T18:37:47.625888","MEAN_MOTION":15.19485671,"ECCENTRICITY":0.00037152,"INCLINATION":97.4241,"RA_OF_ASC_NODE":190.2818,"ARG_OF_PERICENTER":173.2741,"MEAN_ANOMALY":186.8545,"EPHEMERIS_TYPE":0,"CLASSIFICATION_TYPE":"U","NORAD_CAT_ID":66711,"ELEMENT_SET_NO":999,"REV_AT_EPOCH":2246,"BSTAR":0.00030654447,"MEAN_MOTION_DOT":6.439e-5,"MEAN_MOTION_DDOT":0},{"OBJECT_NAME":"FLOCK 4H-9","OBJECT_ID":"2025-276AY","EPOCH":"2026-04-25T22:29:52.732032","MEAN_MOTION":15.19786023,"ECCENTRICITY":0.00044181,"INCLINATION":97.4233,"RA_OF_ASC_NODE":190.5093,"ARG_OF_PERICENTER":143.5378,"MEAN_ANOMALY":216.6159,"EPHEMERIS_TYPE":0,"CLASSIFICATION_TYPE":"U","NORAD_CAT_ID":66712,"ELEMENT_SET_NO":999,"REV_AT_EPOCH":2249,"BSTAR":0.00035999489,"MEAN_MOTION_DOT":7.642e-5,"MEAN_MOTION_DDOT":0},{"OBJECT_NAME":"FLOCK 4H-10","OBJECT_ID":"2025-276AZ","EPOCH":"2026-04-25T22:20:02.366016","MEAN_MOTION":15.19215665,"ECCENTRICITY":0.0005002,"INCLINATION":97.4206,"RA_OF_ASC_NODE":190.3105,"ARG_OF_PERICENTER":166.8261,"MEAN_ANOMALY":193.3105,"EPHEMERIS_TYPE":0,"CLASSIFICATION_TYPE":"U","NORAD_CAT_ID":66713,"ELEMENT_SET_NO":999,"REV_AT_EPOCH":2248,"BSTAR":0.00035217185,"MEAN_MOTION_DOT":7.352e-5,"MEAN_MOTION_DDOT":0},{"OBJECT_NAME":"FLOCK 4H-11","OBJECT_ID":"2025-276BA","EPOCH":"2026-04-25T18:18:51.757920","MEAN_MOTION":15.21187207,"ECCENTRICITY":0.0003497,"INCLINATION":97.4217,"RA_OF_ASC_NODE":190.4161,"ARG_OF_PERICENTER":172.2023,"MEAN_ANOMALY":187.9268,"EPHEMERIS_TYPE":0,"CLASSIFICATION_TYPE":"U","NORAD_CAT_ID":66714,"ELEMENT_SET_NO":999,"REV_AT_EPOCH":2247,"BSTAR":0.00063473802,"MEAN_MOTION_DOT":0.00014101,"MEAN_MOTION_DDOT":0}]
